{
  "norad_id": 61186,
  "name": "BEIDOU-3 M25",
  "history": [
    {
      "epoch": "2026-03-27T00:48:46.058688",
      "apogee_km": 21538.75100459048,
      "perigee_km": 21517.578493453497,
      "latitude_deg": -51.01991549620736,
      "longitude_deg": -154.14882367989048,
      "semi_major_axis_km": 27906.301749021986,
      "eccentricity": 0.00037935,
      "inclination_deg": 54.5461,
      "raan_deg": 305.0968,
      "arg_perigee_deg": 320.5769,
      "mean_anomaly_deg": 217.9271,
      "mean_motion_rev_day": 1.86229867
    }
  ]
}