{"fetched_at":"2026-03-29T02:12:04Z","count":15717,"tles":[{"name":"BEIDOU-3 M25 (C47)","line1":"1 61186U 24168B   26086.03386642 -.00000033  00000+0  00000+0 0  9992","line2":"2 61186  54.5461 305.0968 0003793 320.5769 217.9271  1.86229867 10250","category":"GPS"}]}